{
"type": "FeatureCollection",
"name": "kamakura_official_shelters",
"crs": { "type": "name", "properties": { "name": "urn:ogc:def:crs:EPSG::32654" } },
"features": [
{ "type": "Feature", "properties": { "element": "node", "id": 266748080, "amenity": "public_building", "name": "材木座公会堂" }, "geometry": { "type": "Point", "coordinates": [ 368408.741573957784567, 3908128.401954066473991 ] } },
{ "type": "Feature", "properties": { "element": "node", "id": 1420820959, "amenity": "school", "name": "鎌倉市立第二小学校" }, "geometry": { "type": "Point", "coordinates": [ 369613.630071715568192, 3909859.905317335855216 ] } },
{ "type": "Feature", "properties": { "element": "node", "id": 1420830488, "amenity": "public_building", "name": "神奈川県鎌倉保健福祉事務所(葉山福祉事務所・鎌倉保健所)" }, "geometry": { "type": "Point", "coordinates": [ 367927.277956881385762, 3908679.772941026370972 ] } },
{ "type": "Feature", "properties": { "element": "node", "id": 1420830918, "amenity": "school", "name": "私立鎌倉学園中学校" }, "geometry": { "type": "Point", "coordinates": [ 368484.746376245166175, 3910723.663155048619956 ] } },
{ "type": "Feature", "properties": { "element": "node", "id": 1420830919, "amenity": "school", "name": "私立鎌倉学園高等学校" }, "geometry": { "type": "Point", "coordinates": [ 368496.707018386339769, 3910715.966857029590756 ] } },
{ "type": "Feature", "properties": { "element": "node", "id": 1767061560, "amenity": "school", "name": "Space-K" }, "geometry": { "type": "Point", "coordinates": [ 369355.270367920631543, 3909866.023853551130742 ] } },
{ "type": "Feature", "properties": { "element": "node", "id": 1773552860, "amenity": "school", "name": "鎌倉青少年会館" }, "geometry": { "type": "Point", "coordinates": [ 369660.008009388810024, 3909663.89613323751837 ] } },
{ "type": "Feature", "properties": { "element": "node", "id": 3781554731, "amenity": "community_centre", "name": "大谷戸会館" }, "geometry": { "type": "Point", "coordinates": [ 369450.645869364088867, 3907246.785871099680662 ] } },
{ "type": "Feature", "properties": { "element": "node", "id": 3781555056, "amenity": "community_centre", "name": "小坪東谷戸会館" }, "geometry": { "type": "Point", "coordinates": [ 368938.413634824100882, 3907361.540193800348788 ] } },
{ "type": "Feature", "properties": { "element": "node", "id": 3781558875, "amenity": "community_centre", "name": "小坪公民館" }, "geometry": { "type": "Point", "coordinates": [ 368580.113070011022501, 3907033.857619814574718 ] } },
{ "type": "Feature", "properties": { "element": "node", "id": 6616450992, "amenity": "community_centre", "name": "長谷公会堂" }, "geometry": { "type": "Point", "coordinates": [ 367001.347076312405989, 3908845.580091441515833 ] } },
{ "type": "Feature", "properties": { "element": "node", "id": 6640917025, "amenity": "community_centre", "name": "極楽寺公会堂" }, "geometry": { "type": "Point", "coordinates": [ 366133.813613149453886, 3908181.582320718560368 ] } },
{ "type": "Feature", "properties": { "element": "node", "id": 6676398976, "amenity": "community_centre", "name": "由比ガ浜公会堂" }, "geometry": { "type": "Point", "coordinates": [ 367858.037281933939084, 3908924.940124245826155 ] } },
{ "type": "Feature", "properties": { "element": "node", "id": 6694715771, "amenity": "community_centre", "name": "災害復興支援広場　リバスク" }, "geometry": { "type": "Point", "coordinates": [ 368468.569004684337415, 3909806.622340196743608 ] } },
{ "type": "Feature", "properties": { "element": "node", "id": 7168024674, "amenity": "community_centre", "name": "末広自治会館" }, "geometry": { "type": "Point", "coordinates": [ 367881.553193804516923, 3909492.863071497529745 ] } },
{ "type": "Feature", "properties": { "element": "node", "id": 12189990002, "amenity": "community_centre", "name": null }, "geometry": { "type": "Point", "coordinates": [ 368203.384986717137508, 3909698.873916951939464 ] } },
{ "type": "Feature", "properties": { "element": "relation", "id": 18252681, "amenity": "school", "name": "鎌倉市立稲村ヶ崎小学校" }, "geometry": { "type": "MultiPolygon", "coordinates": [ [ [ [ 366213.092247284366749, 3908510.336149321869016 ], [ 366221.225310638430528, 3908505.056734110694379 ], [ 366199.599379655788653, 3908476.789001263678074 ], [ 366203.047185788396746, 3908474.430275295861065 ], [ 366187.880794442724437, 3908455.562985238619149 ], [ 366178.967877180723008, 3908462.828719677403569 ], [ 366177.722588045522571, 3908461.027823187410831 ], [ 366159.989116312062833, 3908473.816214498132467 ], [ 366144.756767667073291, 3908452.964171287603676 ], [ 366121.885400423547253, 3908462.68941097240895 ], [ 366120.291258129524067, 3908473.518523588776588 ], [ 366121.788845109171234, 3908478.222256065346301 ], [ 366134.478215705486946, 3908495.617478841450065 ], [ 366142.842714566446375, 3908489.391574433539063 ], [ 366172.773925852379762, 3908528.86263926839456 ], [ 366190.262382718792651, 3908524.686743663623929 ], [ 366213.092247284366749, 3908510.336149321869016 ] ] ], [ [ [ 366179.318878314108588, 3908534.212507185991853 ], [ 366197.583348557236604, 3908579.226376071572304 ], [ 366223.317538649891503, 3908571.244918366894126 ], [ 366219.832742558210157, 3908558.250284261070192 ], [ 366220.426852849137504, 3908548.656366657931358 ], [ 366225.28264011896681, 3908534.561624521389604 ], [ 366221.255775486817583, 3908513.23245637724176 ], [ 366193.148423863924108, 3908529.813619069755077 ], [ 366185.372891231905669, 3908532.835697116795927 ], [ 366179.318878314108588, 3908534.212507185991853 ] ] ] ] } },
{ "type": "Feature", "properties": { "element": "way", "id": 24533872, "amenity": "school", "name": "鎌倉女学院" }, "geometry": { "type": "Polygon", "coordinates": [ [ [ 368113.090227274980862, 3908838.831102314405143 ], [ 368143.812418320099823, 3908826.178228046745062 ], [ 368175.823050237144344, 3908810.222855375148356 ], [ 368197.247685589594766, 3908753.131514661479741 ], [ 368220.677868850762025, 3908752.932962052058429 ], [ 368220.829861339298077, 3908844.753760254010558 ], [ 368212.419410663133021, 3908847.90539323957637 ], [ 368142.792467415740248, 3908893.787446889095008 ], [ 368127.857216393924318, 3908866.149635798763484 ], [ 368113.090227274980862, 3908838.831102314405143 ] ] ] } },
{ "type": "Feature", "properties": { "element": "way", "id": 46158367, "amenity": "school", "name": "横浜国立大学教育学部附属鎌倉中学校" }, "geometry": { "type": "Polygon", "coordinates": [ [ [ 368989.545570451649837, 3910025.406882442999631 ], [ 369006.170701396127697, 3910021.393148329574615 ], [ 369002.765864221611992, 3910008.585040188394487 ], [ 368916.924560325802304, 3910029.470143705140799 ], [ 368920.067409239243716, 3910041.760632708203048 ], [ 368978.250149556202814, 3910028.300286174751818 ], [ 368984.516628787503578, 3910051.572519265115261 ], [ 368931.771603029395919, 3910064.454462657682598 ], [ 368934.552926271397155, 3910076.894436856731772 ], [ 368987.703645315312315, 3910064.405978427268565 ], [ 368988.794918724219315, 3910068.173065478447825 ], [ 369032.91696072666673, 3910058.767177766188979 ], [ 369027.746233496349305, 3910037.686631998978555 ], [ 368994.003616075962782, 3910044.98903042357415 ], [ 368989.545570451649837, 3910025.406882442999631 ] ] ] } },
{ "type": "Feature", "properties": { "element": "way", "id": 46158369, "amenity": "school", "name": null }, "geometry": { "type": "Polygon", "coordinates": [ [ [ 368878.10043401439907, 3909948.163580120075494 ], [ 368958.469580711971503, 3909902.31920588389039 ], [ 368973.249819130229298, 3909928.962071197573096 ], [ 368983.97490174381528, 3909928.728367586154491 ], [ 369077.24772965424927, 3909924.886812855955213 ], [ 369118.110126220271923, 3910112.142935744021088 ], [ 369003.902697775338311, 3910167.974405486602336 ], [ 368977.213801518664695, 3910135.780406029894948 ], [ 368984.669574370025657, 3910100.826488737016916 ], [ 368966.508455644128844, 3910086.746545722242445 ], [ 368927.897754462086596, 3910084.390832886565477 ], [ 368925.512452314491384, 3910078.54587138723582 ], [ 368920.157345817890018, 3910079.167417305521667 ], [ 368911.513940506847575, 3910038.146557366941124 ], [ 368877.015833905781619, 3909974.205290233716369 ], [ 368882.290667923516594, 3909971.188642081804574 ], [ 368876.319309672224335, 3909958.839506870601326 ], [ 368878.10043401439907, 3909948.163580120075494 ] ] ] } },
{ "type": "Feature", "properties": { "element": "way", "id": 46158372, "amenity": "school", "name": "横浜国立大学教育学部附属鎌倉小学校" }, "geometry": { "type": "Polygon", "coordinates": [ [ [ 368975.978532860521227, 3909952.784993283916265 ], [ 368972.340785990934819, 3909938.97075392305851 ], [ 368970.205372431781143, 3909932.179177962243557 ], [ 368938.992963790078647, 3909939.689012118149549 ], [ 368940.566323162114713, 3909945.967356199864298 ], [ 368881.581579564372078, 3909961.203506111633033 ], [ 368885.355855957255699, 3909974.394477559253573 ], [ 368942.643122714478523, 3909961.224301074165851 ], [ 368948.529557947942521, 3909982.738139583263546 ], [ 368903.90432694752235, 3909994.448156802449375 ], [ 368906.666508692316711, 3910007.443089341744781 ], [ 368959.824867312214337, 3909993.578749329317361 ], [ 368961.630838077689987, 3910001.473397247958928 ], [ 368997.189921235956717, 3909992.779928438365459 ], [ 368991.566195464343764, 3909969.942086596041918 ], [ 368958.876819159893785, 3909979.037562085781246 ], [ 368953.97949884069385, 3909958.640884814783931 ], [ 368975.978532860521227, 3909952.784993283916265 ] ] ] } },
{ "type": "Feature", "properties": { "element": "way", "id": 46158375, "amenity": "school", "name": "清泉小学校" }, "geometry": { "type": "Polygon", "coordinates": [ [ [ 369223.515467174467631, 3909977.253809441346675 ], [ 369360.435489034513012, 3909968.86531284218654 ], [ 369360.673439823964145, 3909970.226387778762728 ], [ 369362.462230549135711, 3909970.067312395665795 ], [ 369382.611459154519252, 3910071.093925141263753 ], [ 369350.265761770657264, 3910078.807375001255423 ], [ 369330.335120382194873, 3910081.83672401169315 ], [ 369260.250706086109858, 3910087.746355860959738 ], [ 369226.179079025052488, 3910088.041428435128182 ], [ 369224.84936209267471, 3910086.629649569746107 ], [ 369221.460768107906915, 3909979.136301463004202 ], [ 369223.515467174467631, 3909977.253809441346675 ] ] ] } },
{ "type": "Feature", "properties": { "element": "way", "id": 53625026, "amenity": "school", "name": "鎌倉市立第二中学校" }, "geometry": { "type": "Polygon", "coordinates": [ [ [ 369001.651155190775171, 3910318.172020043712109 ], [ 368984.4015165984747, 3910312.343632766976953 ], [ 368992.366451286943629, 3910291.149630632251501 ], [ 368993.935817952849902, 3910280.288211822509766 ], [ 369000.470090192742646, 3910275.112209019716829 ], [ 369014.752098298224155, 3910272.552558389026672 ], [ 369057.468423970625736, 3910277.833115518093109 ], [ 369065.87775345594855, 3910295.937834742944688 ], [ 369123.827919891919009, 3910280.340652267914265 ], [ 369141.460296273173299, 3910343.784593243617564 ], [ 369071.537397177773528, 3910360.032804982736707 ], [ 369070.695952681184281, 3910375.94236751133576 ], [ 369055.643553444067948, 3910439.916988778859377 ], [ 369055.022186565387528, 3910454.702887767460197 ], [ 369045.317081527318805, 3910483.765425572637469 ], [ 369037.857900902861729, 3910500.348129596095532 ], [ 369001.922967202553991, 3910501.192627990152687 ], [ 368989.388339670724235, 3910493.23220641631633 ], [ 368995.091479713562876, 3910450.316275003366172 ], [ 368990.343025264970493, 3910425.136008196510375 ], [ 368982.616001800401136, 3910418.936106280423701 ], [ 368991.379936360404827, 3910356.43955946713686 ], [ 368999.593575336271897, 3910353.590990863740444 ], [ 369007.376343447016552, 3910342.372924061957747 ], [ 369008.179654882638715, 3910323.224534251261503 ], [ 369001.651155190775171, 3910318.172020043712109 ] ] ] } },
{ "type": "Feature", "properties": { "element": "way", "id": 53625030, "amenity": "school", "name": "鎌倉学園" }, "geometry": { "type": "Polygon", "coordinates": [ [ [ 368497.321212878799997, 3910690.797204713802785 ], [ 368541.674459587607998, 3910701.820098510012031 ], [ 368569.479966394428629, 3910723.313228162936866 ], [ 368560.551319133955985, 3910741.2934610103257 ], [ 368556.109104383154772, 3910752.108184254262596 ], [ 368548.774697506800294, 3910759.725758676417172 ], [ 368540.748781332280487, 3910770.415318862069398 ], [ 368534.400478024035692, 3910792.01884967694059 ], [ 368532.317967826733366, 3910806.914919047150761 ], [ 368525.772581916418858, 3910815.020213013514876 ], [ 368523.266721365624107, 3910832.67372496239841 ], [ 368523.144352799921762, 3910837.98943057609722 ], [ 368521.003880272211973, 3910843.312422908842564 ], [ 368515.600349547923543, 3910845.565723299980164 ], [ 368507.115555827505887, 3910844.125430563464761 ], [ 368494.014269799808972, 3910837.826945248059928 ], [ 368487.651956467248965, 3910835.43488195957616 ], [ 368482.315650130214635, 3910829.843919584527612 ], [ 368452.758012905134819, 3910730.742404026910663 ], [ 368497.321212878799997, 3910690.797204713802785 ] ] ] } },
{ "type": "Feature", "properties": { "element": "way", "id": 169926711, "amenity": "public_building", "name": "名越やすらぎセンター" }, "geometry": { "type": "Polygon", "coordinates": [ [ [ 368850.205321776680648, 3908252.560693246312439 ], [ 368838.028094640350901, 3908236.885035111568868 ], [ 368862.27329198596999, 3908218.870936735067517 ], [ 368874.159187527024187, 3908235.149926601909101 ], [ 368866.754182734584901, 3908240.582677553407848 ], [ 368869.073497139266692, 3908244.986407328397036 ], [ 368857.772255566902459, 3908252.006804432254285 ], [ 368856.700938379974104, 3908251.500993073452264 ], [ 368853.707676328602247, 3908253.275180220138282 ], [ 368852.261440802947618, 3908251.377018679399043 ], [ 368850.205321776680648, 3908252.560693246312439 ] ] ] } },
{ "type": "Feature", "properties": { "element": "way", "id": 171171170, "amenity": "public_building", "name": "名越クリーンセンター" }, "geometry": { "type": "Polygon", "coordinates": [ [ [ 369191.663757525966503, 3908175.654326426330954 ], [ 369194.794877280597575, 3908167.710160891059786 ], [ 369189.20911779650487, 3908165.051110190805048 ], [ 369193.625219089211896, 3908154.79189494298771 ], [ 369196.454871342051774, 3908156.148621738422662 ], [ 369206.026445563940797, 3908135.819156304467469 ], [ 369201.107915223692544, 3908133.394473517779261 ], [ 369207.75643261813093, 3908120.307250423356891 ], [ 369228.687482172739692, 3908130.143081656657159 ], [ 369224.6130234739976, 3908138.25623615225777 ], [ 369222.182403403916396, 3908143.716329055838287 ], [ 369218.126561194541864, 3908141.833800826221704 ], [ 369214.16291388461832, 3908150.68862981069833 ], [ 369220.555674273811746, 3908153.81301160575822 ], [ 369213.231171889347024, 3908169.195338852703571 ], [ 369208.107944396499079, 3908173.341090211644769 ], [ 369204.183416491840035, 3908181.130362671334296 ], [ 369191.663757525966503, 3908175.654326426330954 ] ] ] } },
{ "type": "Feature", "properties": { "element": "way", "id": 176112805, "amenity": "school", "name": "鎌倉市立御成小学校" }, "geometry": { "type": "Polygon", "coordinates": [ [ [ 367848.764901426213328, 3909395.508003600407392 ], [ 368010.959373111370951, 3909358.406126711051911 ], [ 368012.714587128022686, 3909344.779434430878609 ], [ 368019.420729438192211, 3909336.427394309546798 ], [ 368024.45474559313152, 3909331.239399600308388 ], [ 368002.306540496414527, 3909281.076180662959814 ], [ 367977.184507337282412, 3909233.375041173305362 ], [ 367936.63946924789343, 3909246.350081067997962 ], [ 367900.078197156486567, 3909247.618410331197083 ], [ 367885.134506162081379, 3909242.978512920904905 ], [ 367873.589250838558655, 3909237.567691231146455 ], [ 367862.865756288461853, 3909237.969064507633448 ], [ 367842.944846518861596, 3909242.388219252228737 ], [ 367829.049002252169885, 3909259.587795782834291 ], [ 367838.275450406305026, 3909273.042297278530896 ], [ 367841.873245741589926, 3909285.858297740574926 ], [ 367847.436520455346908, 3909350.830628796946257 ], [ 367846.745984803535976, 3909382.469145739451051 ], [ 367848.764901426213328, 3909395.508003600407392 ] ] ] } },
{ "type": "Feature", "properties": { "element": "way", "id": 227729323, "amenity": "school", "name": "サンズインターナショナルプレスクール" }, "geometry": { "type": "Polygon", "coordinates": [ [ [ 367873.569940177898388, 3908685.752367114648223 ], [ 367865.804839493066538, 3908675.249515128321946 ], [ 367875.723403321229853, 3908667.660121673252434 ], [ 367883.781046431162395, 3908678.269629382062703 ], [ 367873.569940177898388, 3908685.752367114648223 ] ] ] } },
{ "type": "Feature", "properties": { "element": "way", "id": 264070907, "amenity": "school", "name": "鎌倉市立第一小学校" }, "geometry": { "type": "Polygon", "coordinates": [ [ [ 368040.759494940983132, 3908891.920122118666768 ], [ 367950.763622214784846, 3908909.147375744767487 ], [ 367908.742623663390987, 3908874.895721051841974 ], [ 367922.930902199237607, 3908854.641235071234405 ], [ 367914.414279543794692, 3908835.041377821471542 ], [ 367903.412232200498693, 3908830.121754304040223 ], [ 367892.379908846691251, 3908834.29948290111497 ], [ 367888.435400432674214, 3908831.328729483298957 ], [ 367914.164900839095935, 3908796.327765912748873 ], [ 367950.080268330872059, 3908802.97890157578513 ], [ 368001.942112730699591, 3908797.648203914519399 ], [ 368034.138449603342451, 3908790.653364444617182 ], [ 368056.468799235648476, 3908786.143923934549093 ], [ 368058.969242865452543, 3908790.478244746103883 ], [ 368031.648509308812208, 3908796.347660991363227 ], [ 368040.362906691269018, 3908825.119265996385366 ], [ 368058.113044081139378, 3908888.470924904569983 ], [ 368081.415881120716222, 3908880.841037277597934 ], [ 368102.830391735304147, 3908870.931357165332884 ], [ 368105.316662990720943, 3908874.3007394480519 ], [ 368063.908332282211632, 3908893.023238226771355 ], [ 368050.137650576070882, 3908896.48650533799082 ], [ 368051.24803028232418, 3908908.351665568072349 ], [ 368046.47813686018344, 3908907.999971826560795 ], [ 368040.759494940983132, 3908891.920122118666768 ] ] ] } },
{ "type": "Feature", "properties": { "element": "way", "id": 440263086, "amenity": "public_building", "name": "深沢こどもセンター" }, "geometry": { "type": "Polygon", "coordinates": [ [ [ 366402.451295918144751, 3910481.335921505466104 ], [ 366406.254742653807625, 3910464.394593768753111 ], [ 366374.566051317611709, 3910457.343191786203533 ], [ 366372.655593230156228, 3910465.836180575657636 ], [ 366386.48832690960262, 3910477.778693442698568 ], [ 366402.451295918144751, 3910481.335921505466104 ] ] ] } },
{ "type": "Feature", "properties": { "element": "way", "id": 440275839, "amenity": "public_building", "name": "材木座保育園跡地" }, "geometry": { "type": "Polygon", "coordinates": [ [ [ 368080.363070679421071, 3908434.487867523916066 ], [ 368074.092113798484206, 3908422.93124455679208 ], [ 368057.578665046428796, 3908432.269945620559156 ], [ 368052.918856335803866, 3908423.929119092877954 ], [ 368043.188178507320117, 3908429.47429287340492 ], [ 368057.619396272581071, 3908451.816552439238876 ], [ 368066.83702945621917, 3908445.391405571252108 ], [ 368066.178845757211093, 3908442.050728794187307 ], [ 368080.363070679421071, 3908434.487867523916066 ] ] ] } },
{ "type": "Feature", "properties": { "element": "way", "id": 440344266, "amenity": "community_centre", "name": "梶原子ども会館" }, "geometry": { "type": "Polygon", "coordinates": [ [ [ 366309.779928874981124, 3910370.41916548833251 ], [ 366310.083557211444713, 3910360.252656508237123 ], [ 366319.624861823744141, 3910360.532558505423367 ], [ 366319.710618750541471, 3910357.73562586074695 ], [ 366331.962618569727056, 3910358.108422173652798 ], [ 366331.675366658833809, 3910367.54248968558386 ], [ 366320.524050239357166, 3910367.208821813110262 ], [ 366320.412803318817168, 3910370.738329458516091 ], [ 366309.779928874981124, 3910370.41916548833251 ] ] ] } },
{ "type": "Feature", "properties": { "element": "way", "id": 440429846, "amenity": "public_building", "name": null }, "geometry": { "type": "Polygon", "coordinates": [ [ [ 368417.120322460366879, 3909971.750248663127422 ], [ 368417.457017544307746, 3909955.592805442400277 ], [ 368443.350359855452552, 3909955.558390779886395 ], [ 368444.473718735971488, 3909970.840280676260591 ], [ 368439.274410082609393, 3909970.927334052976221 ], [ 368439.74247419484891, 3909973.71612449362874 ], [ 368424.319369354227092, 3909974.118966598529369 ], [ 368424.283067424024921, 3909971.634493479970843 ], [ 368417.120322460366879, 3909971.750248663127422 ] ] ] } },
{ "type": "Feature", "properties": { "element": "way", "id": 440436466, "amenity": "public_building", "name": "吉屋信子記念館" }, "geometry": { "type": "Polygon", "coordinates": [ [ [ 367343.595847866614349, 3908942.618848267942667 ], [ 367347.402533313026652, 3908933.133055076468736 ], [ 367365.885044243535958, 3908940.915003416594118 ], [ 367361.916283204569481, 3908949.892859634943306 ], [ 367343.595847866614349, 3908942.618848267942667 ] ] ] } },
{ "type": "Feature", "properties": { "element": "way", "id": 447000548, "amenity": "public_building", "name": "NPOセンター鎌倉" }, "geometry": { "type": "Polygon", "coordinates": [ [ [ 367861.421563174459152, 3909463.049874175805598 ], [ 367860.377070250688121, 3909456.930334168951958 ], [ 367868.399074137327261, 3909455.237324345391244 ], [ 367869.332544593140483, 3909461.846620426978916 ], [ 367861.421563174459152, 3909463.049874175805598 ] ] ] } },
{ "type": "Feature", "properties": { "element": "way", "id": 529912007, "amenity": "school", "name": "鎌倉市立御成中学校" }, "geometry": { "type": "Polygon", "coordinates": [ [ [ 367496.191644103266299, 3909354.060806639958173 ], [ 367532.693610301415902, 3909348.786827102303505 ], [ 367529.596812120289542, 3909303.913565968628973 ], [ 367547.932376055279747, 3909298.673889982048422 ], [ 367532.365994182415307, 3909176.893190047238022 ], [ 367486.106977941584773, 3909182.7988047352992 ], [ 367410.212701027630828, 3909220.69163710065186 ], [ 367422.940666073758621, 3909315.078994838986546 ], [ 367485.418424444738775, 3909309.666581422556192 ], [ 367496.191644103266299, 3909354.060806639958173 ] ] ] } },
{ "type": "Feature", "properties": { "element": "way", "id": 695594777, "amenity": "school", "name": "鎌倉市立第一中学校" }, "geometry": { "type": "Polygon", "coordinates": [ [ [ 368760.080778276664205, 3907610.84813588950783 ], [ 368762.04397278331453, 3907595.155232848599553 ], [ 368720.925973069155589, 3907535.038242405280471 ], [ 368698.55282225162955, 3907531.847468726802617 ], [ 368671.620386192342266, 3907524.707264444325119 ], [ 368659.074386514839716, 3907525.622280590236187 ], [ 368650.416687534074299, 3907534.368272017221898 ], [ 368641.188773733156268, 3907545.796168432105333 ], [ 368636.508409059024416, 3907567.230879290960729 ], [ 368635.679440066684037, 3907602.698469472117722 ], [ 368665.581151324440725, 3907654.469665135722607 ], [ 368687.620121313957497, 3907651.59695409052074 ], [ 368760.080778276664205, 3907610.84813588950783 ] ] ] } },
{ "type": "Feature", "properties": { "element": "way", "id": 1263325609, "amenity": "school", "name": "逗子市立小坪小学校" }, "geometry": { "type": "Polygon", "coordinates": [ [ [ 369022.641801510937512, 3907157.77832182822749 ], [ 369062.791569030319806, 3907131.246853112708777 ], [ 369062.226691811578348, 3907126.795398752670735 ], [ 369083.378897025773767, 3907110.990274862851948 ], [ 369092.098649715713691, 3907095.188258872367442 ], [ 369073.719606257916894, 3907046.454417267348617 ], [ 369089.207052953308448, 3907036.98843656340614 ], [ 369077.058857991010882, 3907006.479761080816388 ], [ 369059.472091751056723, 3907005.415072650648654 ], [ 368978.163298838655464, 3907055.430984617676586 ], [ 368964.064225631183945, 3907055.913280490785837 ], [ 368960.205458543088753, 3907061.993249790277332 ], [ 368954.362124702252913, 3907068.568008480127901 ], [ 368981.396918550948612, 3907105.826970850117505 ], [ 368983.734138534287922, 3907103.940352256875485 ], [ 369022.641801510937512, 3907157.77832182822749 ] ] ] } }
]
}
